start=new Date('2022-04-26T00:00:00.000Z').valueOf();
sats=[{"EPHEMERIS_TYPE":"0","OBJECT_TYPE":"PAYLOAD","APOAPSIS":"548.279","SITE":"AFETR","FILE":"3416090","CLASSIFICATION_TYPE":"U","MEAN_MOTION":"15.06391880","OBJECT_NAME":"STARLINK-2236","MEAN_ANOMALY":"78.2219","TLE_LINE1":"1 48582U 21041AF  22115.91667824 -.00012403  00000-0 -81535-3 0  9996","DECAY_DATE":null,"CENTER_NAME":"EARTH","TIME_SYSTEM":"UTC","MEAN_MOTION_DOT":"-0.00012403","GP_ID":"202027704","TLE_LINE2":"2 48582  53.0540 323.2854 0001503  71.0689  78.2219 15.06391880  3602","RA_OF_ASC_NODE":"323.2854","PERIAPSIS":"546.198","RCS_SIZE":"LARGE","OBJECT_ID":"2021-041AF","NORAD_CAT_ID":"48582","REV_AT_EPOCH":"360","SEMIMAJOR_AXIS":"6925.373","PERIOD":"95.593","REF_FRAME":"TEME","INCLINATION":"53.0540","ARG_OF_PERICENTER":"71.0689","EPOCH":"2022-04-25T22:00:00.999936","LAUNCH_DATE":"2021-05-15","BSTAR":"-0.00081535000000","ELEMENT_SET_NO":"999","ECCENTRICITY":"0.00015030","MEAN_ELEMENT_THEORY":"SGP4","COUNTRY_CODE":"US","MEAN_MOTION_DDOT":"0.0000000000000"},{"OBJECT_TYPE":"PAYLOAD","EPHEMERIS_TYPE":"0","MEAN_MOTION":"15.06392456","FILE":"3416090","SITE":"AFETR","CLASSIFICATION_TYPE":"U","APOAPSIS":"548.334","CENTER_NAME":"EARTH","TIME_SYSTEM":"UTC","MEAN_MOTION_DOT":"0.00000567","DECAY_DATE":null,"TLE_LINE1":"1 48583U 21041AG  22115.64456032  .00000567  00000-0  56997-4 0  9995","OBJECT_NAME":"STARLINK-2237","MEAN_ANOMALY":"284.2904","RCS_SIZE":"LARGE","RA_OF_ASC_NODE":"9.5189","PERIAPSIS":"546.140","TLE_LINE2":"2 48583  53.0545   9.5189 0001584  75.8261 284.2904 15.06392456 51939","GP_ID":"202027954","SEMIMAJOR_AXIS":"6925.372","REV_AT_EPOCH":"5193","NORAD_CAT_ID":"48583","OBJECT_ID":"2021-041AG","REF_FRAME":"TEME","INCLINATION":"53.0545","ARG_OF_PERICENTER":"75.8261","PERIOD":"95.593","ECCENTRICITY":"0.00015840","ELEMENT_SET_NO":"999","LAUNCH_DATE":"2021-05-15","BSTAR":"0.00005699700000","EPOCH":"2022-04-25T15:28:10.011648","MEAN_MOTION_DDOT":"0.0000000000000","COUNTRY_CODE":"US","MEAN_ELEMENT_THEORY":"SGP4"},{"RA_OF_ASC_NODE":"8.7421","PERIAPSIS":"546.124","TLE_LINE2":"2 48584  53.0556   8.7421 0001591  57.6491 302.4652 15.06396002 51959","GP_ID":"202026207","RCS_SIZE":"LARGE","TLE_LINE1":"1 48584U 21041AH  22115.81779568  .00000717  00000-0  67059-4 0  9995","OBJECT_NAME":"STARLINK-2238","MEAN_ANOMALY":"302.4652","CENTER_NAME":"EARTH","MEAN_MOTION_DOT":"0.00000717","TIME_SYSTEM":"UTC","DECAY_DATE":null,"APOAPSIS":"548.328","MEAN_MOTION":"15.06396002","FILE":"3416090","SITE":"AFETR","CLASSIFICATION_TYPE":"U","OBJECT_TYPE":"PAYLOAD","EPHEMERIS_TYPE":"0","COUNTRY_CODE":"US","MEAN_ELEMENT_THEORY":"SGP4","MEAN_MOTION_DDOT":"0.0000000000000","BSTAR":"0.00006705900000","LAUNCH_DATE":"2021-05-15","EPOCH":"2022-04-25T19:37:37.546752","ECCENTRICITY":"0.00015910","ELEMENT_SET_NO":"999","PERIOD":"95.592","REF_FRAME":"TEME","INCLINATION":"53.0556","ARG_OF_PERICENTER":"57.6491","NORAD_CAT_ID":"48584","OBJECT_ID":"2021-041AH","SEMIMAJOR_AXIS":"6925.361","REV_AT_EPOCH":"5195"},{"CLASSIFICATION_TYPE":"U","FILE":"3416090","SITE":"AFETR","MEAN_MOTION":"15.06393347","APOAPSIS":"548.264","EPHEMERIS_TYPE":"0","OBJECT_TYPE":"PAYLOAD","RCS_SIZE":"LARGE","TLE_LINE2":"2 48585  53.0547   8.7026 0001488  96.8742 263.2416 15.06393347 51951","GP_ID":"202026457","PERIAPSIS":"546.203","RA_OF_ASC_NODE":"8.7026","DECAY_DATE":null,"TIME_SYSTEM":"UTC","MEAN_MOTION_DOT":"0.00001305","CENTER_NAME":"EARTH","MEAN_ANOMALY":"263.2416","OBJECT_NAME":"STARLINK-2240","TLE_LINE1":"1 48585U 21041AJ  22115.82885453  .00001305  00000-0  10649-3 0  9994","INCLINATION":"53.0547","ARG_OF_PERICENTER":"96.8742","REF_FRAME":"TEME","PERIOD":"95.593","REV_AT_EPOCH":"5195","SEMIMAJOR_AXIS":"6925.369","OBJECT_ID":"2021-041AJ","NORAD_CAT_ID":"48585","MEAN_MOTION_DDOT":"0.0000000000000","MEAN_ELEMENT_THEORY":"SGP4","COUNTRY_CODE":"US","ELEMENT_SET_NO":"999","ECCENTRICITY":"0.00014880","EPOCH":"2022-04-25T19:53:33.031392","LAUNCH_DATE":"2021-05-15","BSTAR":"0.00010649000000"},{"APOAPSIS":"548.384","CLASSIFICATION_TYPE":"U","FILE":"3416090","SITE":"AFETR","MEAN_MOTION":"15.06393018","EPHEMERIS_TYPE":"0","OBJECT_TYPE":"PAYLOAD","GP_ID":"202027204","TLE_LINE2":"2 48586  53.0546   8.7302 0001659  68.3717 291.7449 15.06393018 51951","PERIAPSIS":"546.086","RA_OF_ASC_NODE":"8.7302","RCS_SIZE":"LARGE","MEAN_ANOMALY":"291.7449","OBJECT_NAME":"STARLINK-2241","TLE_LINE1":"1 48586U 21041AK  22115.82148611  .00001449  00000-0  11620-3 0  9992","DECAY_DATE":null,"MEAN_MOTION_DOT":"0.00001449","TIME_SYSTEM":"UTC","CENTER_NAME":"EARTH","PERIOD":"95.593","ARG_OF_PERICENTER":"68.3717","INCLINATION":"53.0546","REF_FRAME":"TEME","OBJECT_ID":"2021-041AK","NORAD_CAT_ID":"48586","REV_AT_EPOCH":"5195","SEMIMAJOR_AXIS":"6925.370","MEAN_ELEMENT_THEORY":"SGP4","COUNTRY_CODE":"US","MEAN_MOTION_DDOT":"0.0000000000000","EPOCH":"2022-04-25T19:42:56.399904","LAUNCH_DATE":"2021-05-15","BSTAR":"0.00011620000000","ELEMENT_SET_NO":"999","ECCENTRICITY":"0.00016590"},{"OBJECT_ID":"2021-041AL","NORAD_CAT_ID":"48587","REV_AT_EPOCH":"5195","SEMIMAJOR_AXIS":"6925.382","PERIOD":"95.593","ARG_OF_PERICENTER":"94.1224","INCLINATION":"53.0589","REF_FRAME":"TEME","EPOCH":"2022-04-25T19:48:14.803776","LAUNCH_DATE":"2021-05-15","BSTAR":"0.00001192000000","ELEMENT_SET_NO":"999","ECCENTRICITY":"0.00012970","MEAN_ELEMENT_THEORY":"SGP4","COUNTRY_CODE":"US","MEAN_MOTION_DDOT":"0.0000000000000","EPHEMERIS_TYPE":"0","OBJECT_TYPE":"PAYLOAD","APOAPSIS":"548.146","CLASSIFICATION_TYPE":"U","FILE":"3416090","SITE":"AFETR","MEAN_MOTION":"15.06388989","MEAN_ANOMALY":"265.9913","OBJECT_NAME":"STARLINK-2242","TLE_LINE1":"1 48587U 21041AL  22115.82517134 -.00000104  00000-0  11920-4 0  9995","DECAY_DATE":null,"TIME_SYSTEM":"UTC","MEAN_MOTION_DOT":"-0.00000104","CENTER_NAME":"EARTH","TLE_LINE2":"2 48587  53.0589   8.6869 0001297  94.1224 265.9913 15.06388989 51954","GP_ID":"202027454","PERIAPSIS":"546.349","RA_OF_ASC_NODE":"8.6869","RCS_SIZE":"LARGE"},{"RCS_SIZE":"LARGE","RA_OF_ASC_NODE":"358.5030","PERIAPSIS":"546.314","GP_ID":"202026708","TLE_LINE2":"2 48588  53.0553 358.5030 0001380  77.4664 282.6479 15.06381774 52104","CENTER_NAME":"EARTH","TIME_SYSTEM":"UTC","MEAN_MOTION_DOT":"-0.00002037","DECAY_DATE":null,"TLE_LINE1":"1 48588U 21041AM  22115.87032919 -.00002037  00000-0 -11794-3 0  9990","MEAN_ANOMALY":"282.6479","OBJECT_NAME":"STARLINK-2244","MEAN_MOTION":"15.06381774","FILE":"3416090","SITE":"AFETR","CLASSIFICATION_TYPE":"U","APOAPSIS":"548.225","OBJECT_TYPE":"PAYLOAD","EPHEMERIS_TYPE":"0","MEAN_MOTION_DDOT":"0.0000000000000","COUNTRY_CODE":"US","MEAN_ELEMENT_THEORY":"SGP4","ECCENTRICITY":"0.00013800","ELEMENT_SET_NO":"999","BSTAR":"-0.00011794000000","LAUNCH_DATE":"2021-05-15","EPOCH":"2022-04-25T20:53:16.442016","REF_FRAME":"TEME","ARG_OF_PERICENTER":"77.4664","INCLINATION":"53.0553","PERIOD":"95.593","SEMIMAJOR_AXIS":"6925.404","REV_AT_EPOCH":"5210","NORAD_CAT_ID":"48588","OBJECT_ID":"2021-041AM"},{"REF_FRAME":"TEME","INCLINATION":"53.0565","ARG_OF_PERICENTER":"76.3981","PERIOD":"95.593","REV_AT_EPOCH":"5210","SEMIMAJOR_AXIS":"6925.373","OBJECT_ID":"2021-041AN","NORAD_CAT_ID":"48589","MEAN_MOTION_DDOT":"0.0000000000000","MEAN_ELEMENT_THEORY":"SGP4","COUNTRY_CODE":"US","ELEMENT_SET_NO":"999","ECCENTRICITY":"0.00015170","EPOCH":"2022-04-25T20:47:57.183648","LAUNCH_DATE":"2021-05-15","BSTAR":"0.00000647400000","SITE":"AFETR","FILE":"3416090","CLASSIFICATION_TYPE":"U","MEAN_MOTION":"15.06392080","APOAPSIS":"548.288","EPHEMERIS_TYPE":"0","OBJECT_TYPE":"PAYLOAD","RCS_SIZE":"LARGE","GP_ID":"202026958","TLE_LINE2":"2 48589  53.0565 358.5202 0001517  76.3981 283.7177 15.06392080 52100","RA_OF_ASC_NODE":"358.5202","PERIAPSIS":"546.187","DECAY_DATE":null,"CENTER_NAME":"EARTH","MEAN_MOTION_DOT":"-0.00000185","TIME_SYSTEM":"UTC","MEAN_ANOMALY":"283.7177","OBJECT_NAME":"STARLINK-2245","TLE_LINE1":"1 48589U 21041AN  22115.86663407 -.00000185  00000-0  64740-5 0  9994"},{"RA_OF_ASC_NODE":"358.5772","PERIAPSIS":"546.163","GP_ID":"202027705","TLE_LINE2":"2 48591  53.0589 358.5772 0001543  74.9912 285.1247 15.06394063 53005","RCS_SIZE":"LARGE","TLE_LINE1":"1 48591U 21041AQ  22115.85094559 -.00000673  00000-0 -26318-4 0  9993","MEAN_ANOMALY":"285.1247","OBJECT_NAME":"STARLINK-2248","CENTER_NAME":"EARTH","MEAN_MOTION_DOT":"-0.00000673","TIME_SYSTEM":"UTC","DECAY_DATE":null,"APOAPSIS":"548.300","MEAN_MOTION":"15.06394063","SITE":"AFETR","FILE":"3416090","CLASSIFICATION_TYPE":"U","OBJECT_TYPE":"PAYLOAD","EPHEMERIS_TYPE":"0","COUNTRY_CODE":"US","MEAN_ELEMENT_THEORY":"SGP4","MEAN_MOTION_DDOT":"0.0000000000000","BSTAR":"-0.00002631800000","LAUNCH_DATE":"2021-05-15","EPOCH":"2022-04-25T20:25:21.698976","ECCENTRICITY":"0.00015430","ELEMENT_SET_NO":"999","PERIOD":"95.593","REF_FRAME":"TEME","INCLINATION":"53.0589","ARG_OF_PERICENTER":"74.9912","NORAD_CAT_ID":"48591","OBJECT_ID":"2021-041AQ","SEMIMAJOR_AXIS":"6925.367","REV_AT_EPOCH":"5300"},{"OBJECT_TYPE":"PAYLOAD","EPHEMERIS_TYPE":"0","APOAPSIS":"548.229","MEAN_MOTION":"15.06394659","SITE":"AFETR","FILE":"3416090","CLASSIFICATION_TYPE":"U","TLE_LINE1":"1 48592U 21041AR  22115.85834169 -.00000112  00000-0  11391-4 0  9995","MEAN_ANOMALY":"275.2844","OBJECT_NAME":"STARLINK-2249","CENTER_NAME":"EARTH","MEAN_MOTION_DOT":"-0.00000112","TIME_SYSTEM":"UTC","DECAY_DATE":null,"RA_OF_ASC_NODE":"8.5636","PERIAPSIS":"546.231","TLE_LINE2":"2 48592  53.0558   8.5636 0001443  84.8310 275.2844 15.06394659 51961","GP_ID":"202027955","RCS_SIZE":"LARGE","NORAD_CAT_ID":"48592","OBJECT_ID":"2021-041AR","SEMIMAJOR_AXIS":"6925.365","REV_AT_EPOCH":"5196","PERIOD":"95.592","REF_FRAME":"TEME","INCLINATION":"53.0558","ARG_OF_PERICENTER":"84.8310","BSTAR":"0.00001139100000","LAUNCH_DATE":"2021-05-15","EPOCH":"2022-04-25T20:36:00.722016","ECCENTRICITY":"0.00014430","ELEMENT_SET_NO":"999","COUNTRY_CODE":"US","MEAN_ELEMENT_THEORY":"SGP4","MEAN_MOTION_DDOT":"0.0000000000000"}];
